{"type": "FeatureCollection", "features": [ {"type": "Feature", "properties": {"norad_id": 40115, "name": "WORLDVIEW-3 (WV-3)", "group": "resource", "lat": 65.35108673625176, "lon": -108.52050250857718, "alt_km": 605.6239457353668, "timestamp": "2025-12-07T14:37:04.866494+00:00", "meta": {"OBJECT_NAME": "WORLDVIEW-3 (WV-3)", "OBJECT_ID": "2014-048A", "EPOCH": "2025-12-06T21:56:34.351008", "MEAN_MOTION": 14.85489396, "ECCENTRICITY": 0.0004346, "INCLINATION": 97.862, "RA_OF_ASC_NODE": 53.268, "ARG_OF_PERICENTER": 204.7583, "MEAN_ANOMALY": 155.3424, "EPHEMERIS_TYPE": 0, "CLASSIFICATION_TYPE": "U", "NORAD_CAT_ID": 40115, "ELEMENT_SET_NO": 999, "REV_AT_EPOCH": 61337, "BSTAR": 0.00024544596, "MEAN_MOTION_DOT": 2.065e-05, "MEAN_MOTION_DDOT": 0}, "tle": {"line1": "1 40115U 14048A   25340.91428647  .00002065  00000+0  24545-3 0  9998", "line2": "2 40115  97.8620  53.2680 0004346 204.7583 155.3424 14.85489396613376"}}, "geometry": {"type": "Point", "coordinates": [-108.52050250857718, 65.35108673625176]}}, {"type": "Feature", "properties": {"norad_id": 40118, "name": "GAOFEN-2", "group": "resource", "lat": 20.72156014734835, "lon": 37.703560660284175, "alt_km": 629.0859726949338, "timestamp": "2025-12-07T14:37:04.866504+00:00", "meta": {"OBJECT_NAME": "GAOFEN-2", "OBJECT_ID": "2014-049A", "EPOCH": "2025-12-06T22:18:14.757408", "MEAN_MOTION": 14.80592446, "ECCENTRICITY": 0.0008386, "INCLINATION": 98.0393, "RA_OF_ASC_NODE": 40.0875, "ARG_OF_PERICENTER": 129.6938, "MEAN_ANOMALY": 230.5015, "EPHEMERIS_TYPE": 0, "CLASSIFICATION_TYPE": "U", "NORAD_CAT_ID": 40118, "ELEMENT_SET_NO": 999, "REV_AT_EPOCH": 61078, "BSTAR": 0.00019897054, "MEAN_MOTION_DOT": 1.474e-05, "MEAN_MOTION_DDOT": 0}, "tle": {"line1": "1 40118U 14049A   25340.92933747  .00001474  00000+0  19897-3 0  9992", "line2": "2 40118  98.0393  40.0875 0008386 129.6938 230.5015 14.80592446610786"}}, "geometry": {"type": "Point", "coordinates": [37.703560660284175, 20.72156014734835]}}, {"type": "Feature", "properties": {"norad_id": 40143, "name": "YAOGAN-21", "group": "resource", "lat": -82.70271460887406, "lon": 104.83810965339889, "alt_km": 508.16096453171303, "timestamp": "2025-12-07T14:37:04.866514+00:00", "meta": {"OBJECT_NAME": "YAOGAN-21", "OBJECT_ID": "2014-053A", "EPOCH": "2025-12-06T21:40:05.785536", "MEAN_MOTION": 15.2357274, "ECCENTRICITY": 0.00100963, "INCLINATION": 97.1758, "RA_OF_ASC_NODE": 24.4696, "ARG_OF_PERICENTER": 59.7617, "MEAN_ANOMALY": 300.4619, "EPHEMERIS_TYPE": 0, "CLASSIFICATION_TYPE": "U", "NORAD_CAT_ID": 40143, "ELEMENT_SET_NO": 999, "REV_AT_EPOCH": 62565, "BSTAR": 0.00040776447, "MEAN_MOTION_DOT": 9.702e-05, "MEAN_MOTION_DDOT": 0}, "tle": {"line1": "1 40143U 14053A   25340.90284474  .00009702  00000+0  40776-3 0  9991", "line2": "2 40143  97.1758  24.4696 0010096  59.7617 300.4619 15.23572740625656"}}, "geometry": {"type": "Point", "coordinates": [104.83810965339889, -82.70271460887406]}}, {"type": "Feature", "properties": {"norad_id": 40275, "name": "YAOGAN-22", "group": "resource", "lat": -16.13404321040835, "lon": 128.1035269068933, "alt_km": 1205.871566304385, "timestamp": "2025-12-07T14:37:04.866524+00:00", "meta": {"OBJECT_NAME": "YAOGAN-22", "OBJECT_ID": "2014-063A", "EPOCH": "2025-12-06T22:16:27.100416", "MEAN_MOTION": 13.15522448, "ECCENTRICITY": 0.0005912, "INCLINATION": 100.7418, "RA_OF_ASC_NODE": 124.2656, "ARG_OF_PERICENTER": 262.2961, "MEAN_ANOMALY": 97.7479, "EPHEMERIS_TYPE": 0, "CLASSIFICATION_TYPE": "U", "NORAD_CAT_ID": 40275, "ELEMENT_SET_NO": 999, "REV_AT_EPOCH": 53453, "BSTAR": 3.086505e-05, "MEAN_MOTION_DOT": -3.5e-07, "MEAN_MOTION_DDOT": 0}, "tle": {"line1": "1 40275U 14063A   25340.92809144 -.00000035  00000+0  30865-4 0  9997", "line2": "2 40275 100.7418 124.2656 0005912 262.2961  97.7479 13.15522448534530"}}, "geometry": {"type": "Point", "coordinates": [128.1035269068933, -16.13404321040835]}}, {"type": "Feature", "properties": {"norad_id": 40298, "name": "ASNARO", "group": "resource", "lat": 36.439768499470944, "lon": 52.20088104170332, "alt_km": 505.92646930030423, "timestamp": "2025-12-07T14:37:04.866535+00:00", "meta": {"OBJECT_NAME": "ASNARO", "OBJECT_ID": "2014-070A", "EPOCH": "2025-12-06T21:04:09.273504", "MEAN_MOTION": 15.19310963, "ECCENTRICITY": 0.00053447, "INCLINATION": 97.3661, "RA_OF_ASC_NODE": 56.9687, "ARG_OF_PERICENTER": 138.0934, "MEAN_ANOMALY": 222.0711, "EPHEMERIS_TYPE": 0, "CLASSIFICATION_TYPE": "U", "NORAD_CAT_ID": 40298, "ELEMENT_SET_NO": 999, "REV_AT_EPOCH": 61480, "BSTAR": 0.00075581118, "MEAN_MOTION_DOT": 0.00015918, "MEAN_MOTION_DDOT": 0}, "tle": {"line1": "1 40298U 14070A   25340.87788511  .00015918  00000+0  75581-3 0  9996", "line2": "2 40298  97.3661  56.9687 0005344 138.0934 222.0711 15.19310963614804"}}, "geometry": {"type": "Point", "coordinates": [52.20088104170332, 36.439768499470944]}}, {"type": "Feature", "properties": {"norad_id": 40310, "name": "YAOGAN-24", "group": "resource", "lat": 81.12250172571956, "lon": 46.55970894244003, "alt_km": 630.1210418460805, "timestamp": "2025-12-07T14:37:04.866545+00:00", "meta": {"OBJECT_NAME": "YAOGAN-24", "OBJECT_ID": "2014-072A", "EPOCH": "2025-12-06T21:57:33.866784", "MEAN_MOTION": 14.761578, "ECCENTRICITY": 0.00144526, "INCLINATION": 98.1225, "RA_OF_ASC_NODE": 111.9775, "ARG_OF_PERICENTER": 156.0642, "MEAN_ANOMALY": 204.1242, "EPHEMERIS_TYPE": 0, "CLASSIFICATION_TYPE": "U", "NORAD_CAT_ID": 40310, "ELEMENT_SET_NO": 999, "REV_AT_EPOCH": 59535, "BSTAR": 0.00027080656, "MEAN_MOTION_DOT": 1.822e-05, "MEAN_MOTION_DDOT": 0}, "tle": {"line1": "1 40310U 14072A   25340.91497531  .00001822  00000+0  27081-3 0  9998", "line2": "2 40310  98.1225 111.9775 0014452 156.0642 204.1242 14.76157800595359"}}, "geometry": {"type": "Point", "coordinates": [46.55970894244003, 81.12250172571956]}}, {"type": "Feature", "properties": {"norad_id": 40336, "name": "CBERS 4", "group": "resource", "lat": -36.50155699355545, "lon": -146.42426323843313, "alt_km": 779.8182072250929, "timestamp": "2025-12-07T14:37:04.866555+00:00", "meta": {"OBJECT_NAME": "CBERS 4", "OBJECT_ID": "2014-079A", "EPOCH": "2025-12-06T22:33:19.697184", "MEAN_MOTION": 14.3551438, "ECCENTRICITY": 0.00015164, "INCLINATION": 98.3318, "RA_OF_ASC_NODE": 39.155, "ARG_OF_PERICENTER": 120.8506, "MEAN_ANOMALY": 239.283, "EPHEMERIS_TYPE": 0, "CLASSIFICATION_TYPE": "U", "NORAD_CAT_ID": 40336, "ELEMENT_SET_NO": 999, "REV_AT_EPOCH": 57637, "BSTAR": 0.00011473323, "MEAN_MOTION_DOT": 2.88e-06, "MEAN_MOTION_DDOT": 0}, "tle": {"line1": "1 40336U 14079A   25340.93981131  .00000288  00000+0  11473-3 0  9992", "line2": "2 40336  98.3318  39.1550 0001516 120.8506 239.2830 14.35514380576377"}}, "geometry": {"type": "Point", "coordinates": [-146.42426323843313, -36.50155699355545]}}, {"type": "Feature", "properties": {"norad_id": 40362, "name": "YAOGAN-26", "group": "resource", "lat": 59.02732989873195, "lon": -29.456748450691737, "alt_km": 438.7828472445053, "timestamp": "2025-12-07T14:37:04.866566+00:00", "meta": {"OBJECT_NAME": "YAOGAN-26", "OBJECT_ID": "2014-088A", "EPOCH": "2025-12-06T22:45:17.942976", "MEAN_MOTION": 15.38997477, "ECCENTRICITY": 0.00069096, "INCLINATION": 97.064, "RA_OF_ASC_NODE": 341.8295, "ARG_OF_PERICENTER": 45.9002, "MEAN_ANOMALY": 314.2812, "EPHEMERIS_TYPE": 0, "CLASSIFICATION_TYPE": "U", "NORAD_CAT_ID": 40362, "ELEMENT_SET_NO": 999, "REV_AT_EPOCH": 60805, "BSTAR": 0.0006960966, "MEAN_MOTION_DOT": 0.00026879, "MEAN_MOTION_DDOT": 0}, "tle": {"line1": "1 40362U 14088A   25340.94812434  .00026879  00000+0  69610-3 0  9991", "line2": "2 40362  97.0640 341.8295 0006909  45.9002 314.2812 15.38997477608059"}}, "geometry": {"type": "Point", "coordinates": [-29.456748450691737, 59.02732989873195]}}, {"type": "Feature", "properties": {"norad_id": 40376, "name": "SMAP", "group": "resource", "lat": -81.16103119748146, "lon": 99.60466227374616, "alt_km": 690.625578137845, "timestamp": "2025-12-07T14:37:04.866577+00:00", "meta": {"OBJECT_NAME": "SMAP", "OBJECT_ID": "2015-003A", "EPOCH": "2025-12-06T22:38:02.641632", "MEAN_MOTION": 14.63333652, "ECCENTRICITY": 0.00012075, "INCLINATION": 98.129, "RA_OF_ASC_NODE": 345.7505, "ARG_OF_PERICENTER": 87.9116, "MEAN_ANOMALY": 272.2224, "EPHEMERIS_TYPE": 0, "CLASSIFICATION_TYPE": "U", "NORAD_CAT_ID": 40376, "ELEMENT_SET_NO": 999, "REV_AT_EPOCH": 57950, "BSTAR": 0.0002117859, "MEAN_MOTION_DOT": 1.047e-05, "MEAN_MOTION_DDOT": 0}, "tle": {"line1": "1 40376U 15003A   25340.94308613  .00001047  00000+0  21179-3 0  9991", "line2": "2 40376  98.1290 345.7505 0001207  87.9116 272.2224 14.63333652579505"}}, "geometry": {"type": "Point", "coordinates": [99.60466227374616, -81.16103119748146]}}, {"type": "Feature", "properties": {"norad_id": 40536, "name": "KOMPSAT-3A", "group": "resource", "lat": -81.1268178067453, "lon": 15.46609727976494, "alt_km": 444.7892956643973, "timestamp": "2025-12-07T14:37:04.866587+00:00", "meta": {"OBJECT_NAME": "KOMPSAT-3A", "OBJECT_ID": "2015-014A", "EPOCH": "2025-12-06T21:52:30.383328", "MEAN_MOTION": 15.4363286, "ECCENTRICITY": 0.00042335, "INCLINATION": 97.6784, "RA_OF_ASC_NODE": 314.9375, "ARG_OF_PERICENTER": 138.9718, "MEAN_ANOMALY": 221.1849, "EPHEMERIS_TYPE": 0, "CLASSIFICATION_TYPE": "U", "NORAD_CAT_ID": 40536, "ELEMENT_SET_NO": 999, "REV_AT_EPOCH": 59205, "BSTAR": 0.00060226983, "MEAN_MOTION_DOT": 0.00027087, "MEAN_MOTION_DDOT": 0}, "tle": {"line1": "1 40536U 15014A   25340.91146277  .00027087  00000+0  60227-3 0  9993", "line2": "2 40536  97.6784 314.9375 0004233 138.9718 221.1849 15.43632860592058"}}, "geometry": {"type": "Point", "coordinates": [15.46609727976494, -81.1268178067453]}}]}